HULIANWANG DIGUI 18J    
1 67443U 26007J   26018.63949925  .00000091  00000+0  18396-3 0  9992
2 67443  50.0089 274.5106 0006073 293.7937  66.2325 13.92553527   702
CZ-8A R/B               
1 67444U 26007K   26018.42495903 -.00000179  00000+0 -11249-4 0  9992
2 67444  50.0116 274.7097 0092134  99.4956 261.6380 14.13545224   677
ALSAT-3A                
1 67474U 26009A   26018.62709618  .00006919  00000+0  29325-3 0  9999
2 67474  97.4724  93.3880 0011442 255.6338 104.3629 15.23403990   537
CZ-2C R/B               
1 67475U 26009B   26018.60738108  .00004102  00000+0  27895-3 0  9996
2 67475  97.1815  92.8192 0098977 210.9700 148.5668 15.02889606   522
TRANSPORTER-15DT        
1 67483U 25276DT  26017.61582459  .00001158  00000+0  10212-3 0  9999
2 67483  97.5470  93.5003 0008917 314.8090  45.2407 14.98282882    73
