CCSDS_OMM_VERS = 2.0
CREATION_DATE  = 
ORIGINATOR     = 

OBJECT_NAME    = HULIANWANG DIGUI 18J
OBJECT_ID      = 2026-007J
CENTER_NAME    = EARTH
REF_FRAME      = TEME
TIME_SYSTEM    = UTC
MEAN_ELEMENT_THEORY = SGP/SGP4

EPOCH          = 2026-01-18T15:20:52.735200
MEAN_MOTION    = 13.92553527
ECCENTRICITY   = .00060732
INCLINATION    = 50.0089
RA_OF_ASC_NODE = 274.5106
ARG_OF_PERICENTER = 293.7937
MEAN_ANOMALY   = 66.2325

EPHEMERIS_TYPE = 0
CLASSIFICATION_TYPE = U
NORAD_CAT_ID   = 67443
ELEMENT_SET_NO = 999
REV_AT_EPOCH   = 70
BSTAR          = .18396E-3
MEAN_MOTION_DOT = .91E-6
MEAN_MOTION_DDOT = 0

CCSDS_OMM_VERS = 2.0
CREATION_DATE  = 
ORIGINATOR     = 

OBJECT_NAME    = CZ-8A R/B
OBJECT_ID      = 2026-007K
CENTER_NAME    = EARTH
REF_FRAME      = TEME
TIME_SYSTEM    = UTC
MEAN_ELEMENT_THEORY = SGP/SGP4

EPOCH          = 2026-01-18T10:11:56.460192
MEAN_MOTION    = 14.13545224
ECCENTRICITY   = .00921341
INCLINATION    = 50.0116
RA_OF_ASC_NODE = 274.7097
ARG_OF_PERICENTER = 99.4956
MEAN_ANOMALY   = 261.6380

EPHEMERIS_TYPE = 0
CLASSIFICATION_TYPE = U
NORAD_CAT_ID   = 67444
ELEMENT_SET_NO = 999
REV_AT_EPOCH   = 67
BSTAR          = -.11248607E-4
MEAN_MOTION_DOT = -.179E-5
MEAN_MOTION_DDOT = 0

CCSDS_OMM_VERS = 2.0
CREATION_DATE  = 
ORIGINATOR     = 

OBJECT_NAME    = ALSAT-3A
OBJECT_ID      = 2026-009A
CENTER_NAME    = EARTH
REF_FRAME      = TEME
TIME_SYSTEM    = UTC
MEAN_ELEMENT_THEORY = SGP/SGP4

EPOCH          = 2026-01-18T15:03:01.109952
MEAN_MOTION    = 15.23403990
ECCENTRICITY   = .00114428
INCLINATION    = 97.4724
RA_OF_ASC_NODE = 93.3880
ARG_OF_PERICENTER = 255.6338
MEAN_ANOMALY   = 104.3629

EPHEMERIS_TYPE = 0
CLASSIFICATION_TYPE = U
NORAD_CAT_ID   = 67474
ELEMENT_SET_NO = 999
REV_AT_EPOCH   = 53
BSTAR          = .293254E-3
MEAN_MOTION_DOT = .6919E-4
MEAN_MOTION_DDOT = 0

CCSDS_OMM_VERS = 2.0
CREATION_DATE  = 
ORIGINATOR     = 

OBJECT_NAME    = CZ-2C R/B
OBJECT_ID      = 2026-009B
CENTER_NAME    = EARTH
REF_FRAME      = TEME
TIME_SYSTEM    = UTC
MEAN_ELEMENT_THEORY = SGP/SGP4

EPOCH          = 2026-01-18T14:34:37.725312
MEAN_MOTION    = 15.02889606
ECCENTRICITY   = .00989772
INCLINATION    = 97.1815
RA_OF_ASC_NODE = 92.8192
ARG_OF_PERICENTER = 210.9700
MEAN_ANOMALY   = 148.5668

EPHEMERIS_TYPE = 0
CLASSIFICATION_TYPE = U
NORAD_CAT_ID   = 67475
ELEMENT_SET_NO = 999
REV_AT_EPOCH   = 52
BSTAR          = .27895458E-3
MEAN_MOTION_DOT = .4102E-4
MEAN_MOTION_DDOT = 0

CCSDS_OMM_VERS = 2.0
CREATION_DATE  = 
ORIGINATOR     = 

OBJECT_NAME    = 2026-012A
OBJECT_ID      = 2026-012A
CENTER_NAME    = EARTH
REF_FRAME      = TEME
TIME_SYSTEM    = UTC
MEAN_ELEMENT_THEORY = SGP/SGP4

EPOCH          = 2026-01-17T14:46:47.244576
MEAN_MOTION    = 14.98282882
ECCENTRICITY   = .00089173
INCLINATION    = 97.5470
RA_OF_ASC_NODE = 93.5003
ARG_OF_PERICENTER = 314.8090
MEAN_ANOMALY   = 45.2407

EPHEMERIS_TYPE = 0
CLASSIFICATION_TYPE = U
NORAD_CAT_ID   = 67483
ELEMENT_SET_NO = 999
REV_AT_EPOCH   = 7
BSTAR          = .10211543E-3
MEAN_MOTION_DOT = .1158E-4
MEAN_MOTION_DDOT = 0

